0 DELTA 1 DEB
1 07066U 73086BJ  13282.13214293  .00000921  00000-0  73338-2 0  6809
2 07066 101.8274 344.4629 0063927 227.8944 162.4887 12.38277882800922
0 DELTA 1 DEB
1 07066U 73086BJ  13284.15836635  .00001024  00000-0  81144-2 0  6813
2 07066 101.8275 346.4246 0064254 224.4605 194.6398 12.38280101801171
0 DELTA 1 DEB
1 07066U 73086BJ  13285.46425781  .00000951  00000-0  75637-2 0  6823
2 07066 101.8272 347.6895 0064296 222.2353 255.8469 12.38283369801339
0 DELTA 1 DEB
1 07066U 73086BJ  13286.75859556  .00001101  00000-0  87008-2 0  6831
2 07066 101.8273 348.9428 0064440 220.0638 265.5307 12.38285411801495
0 DELTA 1 DEB
1 07066U 73086BJ  13288.11677787  .00001274  00000-0  10018-1 0  6845
2 07066 101.8274 350.2576 0064587 217.8554 199.7475 12.38287985801660
0 DELTA 1 DEB
1 07066U 73086BJ  13289.15722211  .00001044  00000-0  82667-2 0  6859
2 07066 101.8270 351.2654 0064686 216.0968 157.6942 12.38290110801794
0 DELTA 1 DEB
1 07066U 73086BJ  13292.40008341  .00000924  00000-0  73557-2 0  6867
2 07066 101.8267 354.4053 0064926 210.6142 213.3277 12.38296463802192
0 DELTA 1 DEB
1 07066U 73086BJ  13293.70615171  .00000956  00000-0  75975-2 0  6878
2 07066 101.8264 355.6701 0065022 208.5111 275.2721 12.38299296802358
0 DELTA 1 DEB
1 07066U 73086BJ  13295.13871206  .00000887  00000-0  70691-2 0  6884
2 07066 101.8267 357.0571 0065077 206.1237 181.1638 12.38302225802534
